NORAD_CAT_ID,OBJECT_NAME,OBJECT_TYPE,EPOCH,MEAN_MOTION,ECCENTRICITY,INCLINATION,RA_OF_ASC_NODE,ARG_OF_PERICENTER,MEAN_ANOMALY,BSTAR,MEAN_MOTION_DOT,MEAN_MOTION_DDOT,TLE_LINE0,TLE_LINE1,TLE_LINE2,SEMIMAJOR_AXIS,PERIOD,APOGEE,PERIGEE,DECAYED
49416.0,STARLINK-3133,PAYLOAD,2023-12-07 08:15:35,15.08842865,0.0001999,53.2159,325.2642,109.0762,251.0447,-9.4692e-06,-4.39e-06,0.0,0 STARLINK-3133,1 49416U 21104J   23341.34415932 -.00000439  00000-0 -94692-5 0  9999,2 49416  53.2159 325.2642 0001999 109.0762 251.0447 15.08842865115421,6917.872,95.437,541.12,538.354,0.0
49416.0,STARLINK-3133,PAYLOAD,2023-12-08 03:20:13,15.08836402,0.0001947,53.2159,321.6956,104.4535,255.6674,5.5905e-05,6.02e-06,0.0,0 STARLINK-3133,1 49416U 21104J   23342.13904538  .00000602  00000-0  55905-4 0  9995,2 49416  53.2159 321.6956 0001947 104.4535 255.6674 15.08836402115544,6917.891,95.438,541.103,538.409,0.0
49416.0,STARLINK-3133,PAYLOAD,2023-12-08 06:30:59,15.08839139,0.0001939,53.2164,321.1024,101.065,259.056,0.00017303,2.467e-05,0.0,0 STARLINK-3133,1 49416U 21104J   23342.27152586  .00002467  00000-0  17303-3 0  9998,2 49416  53.2164 321.1024 0001939 101.0650 259.0560 15.08839139114476,6917.883,95.438,541.089,538.407,0.0
49416.0,STARLINK-3133,PAYLOAD,2023-12-08 22:24:50,15.0886103,0.0001834,53.2162,318.1278,105.9964,254.1231,0.00051186,7.872e-05,0.0,0 STARLINK-3133,1 49416U 21104J   23342.93391406  .00007872  00000-0  51186-3 0  9999,2 49416  53.2162 318.1278 0001834 105.9964 254.1231 15.08861030114573,6917.816,95.436,540.95,538.412,0.0
49416.0,STARLINK-3133,PAYLOAD,2023-12-09 03:10:59,15.08869539,0.0001842,53.2163,317.2361,102.0643,258.0556,0.00063084,9.774e-05,0.0,0 STARLINK-3133,1 49416U 21104J   23343.13262954  .00009774  00000-0  63084-3 0  9990,2 49416  53.2163 317.2361 0001842 102.0643 258.0556 15.08869539115697,6917.79,95.436,540.929,538.381,0.0
49416.0,STARLINK-3133,PAYLOAD,2023-12-09 04:46:22,15.08872488,0.0001881,53.2162,316.9391,96.5859,263.5348,0.00070789,0.00011006,0.0,0 STARLINK-3133,1 49416U 21104J   23343.19886904  .00011006  00000-0  70789-3 0  9994,2 49416  53.2162 316.9391 0001881  96.5859 263.5348 15.08872488114612,6917.781,95.435,540.947,538.345,0.0
49416.0,STARLINK-3133,PAYLOAD,2023-12-09 22:15:36,15.088478,0.0001993,53.2162,313.6658,107.8229,252.298,-4.5324e-05,-1.01e-05,0.0,0 STARLINK-3133,1 49416U 21104J   23343.92751086 -.00001010  00000-0 -45324-4 0  9991,2 49416  53.2162 313.6658 0001993 107.8229 252.2980 15.08847800114722,6917.857,95.437,541.1,538.343,0.0
49416.0,STARLINK-3133,PAYLOAD,2023-12-11 02:52:34,15.08834171,0.0002078,53.2176,308.3116,117.2211,242.8993,-0.0001086,-2.016e-05,0.0,0 STARLINK-3133,1 49416U 21104J   23345.11984004 -.00002016  00000-0 -10860-3 0  9995,2 49416  53.2176 308.3116 0002078 117.2211 242.8993 15.08834171115994,6917.898,95.438,541.201,538.326,0.0
49416.0,STARLINK-3133,PAYLOAD,2023-12-12 02:43:21,15.0884096,0.000166,53.2171,303.8522,100.8965,259.2214,0.00028769,4.294e-05,0.0,0 STARLINK-3133,1 49416U 21104J   23346.11344208  .00004294  00000-0  28769-3 0  9997,2 49416  53.2171 303.8522 0001660 100.8965 259.2214 15.08840960116149,6917.877,95.437,540.891,538.594,0.0
49416.0,STARLINK-3133,PAYLOAD,2023-12-13 02:34:08,15.08840806,0.0001803,53.2173,299.3929,118.9208,241.1965,8.6817e-05,1.094e-05,0.0,0 STARLINK-3133,1 49416U 21104J   23347.10704349  .00001094  00000-0  86817-4 0  9997,2 49416  53.2173 299.3929 0001803 118.9208 241.1965 15.08840806116298,6917.878,95.438,540.99,538.496,0.0
49416.0,STARLINK-3133,PAYLOAD,2023-12-14 04:00:19,15.08829251,0.0001504,53.2164,294.637,91.4576,268.6588,0.00043438,6.63e-05,0.0,0 STARLINK-3133,1 49416U 21104J   23348.16689213  .00006630  00000-0  43438-3 0  9998,2 49416  53.2164 294.6370 0001504  91.4576 268.6588 15.08829251116451,6917.913,95.438,540.819,538.738,0.0
49416.0,STARLINK-3133,PAYLOAD,2023-12-15 03:51:05,15.08850864,0.0001424,53.2165,290.1773,81.8503,278.2651,0.00029222,4.367e-05,0.0,0 STARLINK-3133,1 49416U 21104J   23349.16048172  .00004367  00000-0  29222-3 0  9992,2 49416  53.2165 290.1773 0001424  81.8503 278.2651 15.08850864116603,6917.847,95.437,540.697,538.727,0.0
49416.0,STARLINK-3133,PAYLOAD,2023-12-16 03:41:53,15.08834095,0.0001449,53.2162,285.7165,84.3528,275.7629,-5.2989e-06,-3.72e-06,0.0,0 STARLINK-3133,1 49416U 21104J   23350.15409248 -.00000372  00000-0 -52989-5 0  9990,2 49416  53.2162 285.7165 0001449  84.3528 275.7629 15.08834095116758,6917.898,95.438,540.766,538.761,0.0
49416.0,STARLINK-3133,PAYLOAD,2023-12-17 01:57:17,15.08850903,0.0001689,53.2167,281.5525,69.4054,290.7119,0.00034306,5.178e-05,0.0,0 STARLINK-3133,1 49416U 21104J   23351.08144978  .00005178  00000-0  34306-3 0  9997,2 49416  53.2167 281.5525 0001689  69.4054 290.7119 15.08850903116893,6917.847,95.437,540.88,538.544,0.0
49416.0,STARLINK-3133,PAYLOAD,2023-12-17 22:37:17,15.08858682,0.000164,53.2163,277.6854,96.1086,264.0093,0.00045171,6.912e-05,0.0,0 STARLINK-3133,1 49416U 21104J   23351.94256324  .00006912  00000-0  45171-3 0  9990,2 49416  53.2163 277.6854 0001640  96.1086 264.0093 15.08858682115930,6917.823,95.436,540.823,538.554,0.0
49416.0,STARLINK-3133,PAYLOAD,2023-12-18 01:48:03,15.08864588,0.000164,53.2168,277.0911,91.3248,268.7932,0.00052832,8.136e-05,0.0,0 STARLINK-3133,1 49416U 21104J   23352.07504056  .00008136  00000-0  52832-3 0  9995,2 49416  53.2168 277.0911 0001640  91.3248 268.7932 15.08864588115957,6917.805,95.436,540.805,538.536,0.0
49416.0,STARLINK-3133,PAYLOAD,2023-12-18 22:28:04,15.08829249,0.0002323,53.2159,273.2213,138.5205,221.5964,-6.9446e-05,-1.393e-05,0.0,0 STARLINK-3133,1 49416U 21104J   23352.93616800 -.00001393  00000-0 -69446-4 0  9991,2 49416  53.2159 273.2213 0002323 138.5205 221.5964 15.08829249116088,6917.913,95.438,541.385,538.171,0.0
49416.0,STARLINK-3133,PAYLOAD,2023-12-19 01:38:51,15.08826185,0.0001279,53.2158,272.6314,81.9166,278.1971,-0.00014442,-2.585e-05,0.0,0 STARLINK-3133,1 49416U 21104J   23353.06865468 -.00002585  00000-0 -14442-3 0  9991,2 49416  53.2158 272.6314 0001279  81.9166 278.1971 15.08826185117193,6917.923,95.438,540.672,538.903,0.0
49416.0,STARLINK-3133,PAYLOAD,2023-12-20 01:29:38,15.08859819,0.0001202,53.2162,268.1711,88.959,271.154,0.0011296,0.00017745,0.0,0 STARLINK-3133,1 49416U 21104J   23354.06225400  .00017745  00000-0  11296-2 0  9993,2 49416  53.2162 268.1711 0001202  88.9590 271.1540 15.08859819117345,6917.82,95.436,540.516,538.853,0.0
49416.0,STARLINK-3133,PAYLOAD,2023-12-20 22:09:38,15.08859899,0.0001833,53.2166,264.3081,130.6022,229.513,0.00031779,4.776e-05,0.0,0 STARLINK-3133,1 49416U 21104J   23354.92336680  .00004776  00000-0  31779-3 0  9990,2 49416  53.2166 264.3081 0001833 130.6022 229.5130 15.08859899116385,6917.82,95.436,540.953,538.417,0.0
49416.0,STARLINK-3133,PAYLOAD,2023-12-20 23:45:02,15.08865645,0.0001361,53.2162,264.0108,113.1476,246.9659,0.00079258,0.00012357,0.0,0 STARLINK-3133,1 49416U 21104J   23354.98960732  .00012357  00000-0  79258-3 0  9995,2 49416  53.2162 264.0108 0001361 113.1476 246.9659 15.08865645117480,6917.802,95.436,540.609,538.725,0.0
49416.0,STARLINK-3133,PAYLOAD,2023-12-21 22:00:26,15.08843407,0.0001942,53.216,259.8455,134.5791,225.536,0.00093443,0.00014616,0.0,0 STARLINK-3133,1 49416U 21104J   23355.91697056  .00014616  00000-0  93443-3 0  9997,2 49416  53.2160 259.8455 0001942 134.5791 225.5360 15.08843407116536,6917.87,95.437,541.078,538.392,0.0
49416.0,STARLINK-3133,PAYLOAD,2023-12-22 01:11:12,15.08802658,0.0001275,53.2156,259.2486,91.1688,268.9451,-0.00032147,-5.395e-05,0.0,0 STARLINK-3133,1 49416U 21104J   23356.04945567 -.00005395  00000-0 -32147-3 0  9995,2 49416  53.2156 259.2486 0001275  91.1688 268.9451 15.08802658117649,6917.995,95.44,540.742,538.977,0.0
49416.0,STARLINK-3133,PAYLOAD,2023-12-22 21:51:14,15.08831651,0.0001214,53.2143,255.3802,119.8422,240.2691,0.0010989,0.0001724,0.0,0 STARLINK-3133,1 49416U 21104J   23356.91058766  .00017240  00000-0  10989-2 0  9996,2 49416  53.2143 255.3802 0001214 119.8422 240.2691 15.08831651116688,6917.906,95.438,540.611,538.931,0.0
49416.0,STARLINK-3133,PAYLOAD,2023-12-23 02:37:24,15.08855912,0.0001354,53.215,254.4915,85.4283,274.6863,0.001837,0.00029082,0.0,0 STARLINK-3133,1 49416U 21104J   23357.10930812  .00029082  00000-0  18370-2 0  9998,2 49416  53.2150 254.4915 0001354  85.4283 274.6863 15.08855912117802,6917.832,95.437,540.633,538.76,0.0
49416.0,STARLINK-3133,PAYLOAD,2023-12-23 16:55:51,15.0885795,0.0001517,53.215,251.811,136.5835,223.5277,0.0004606,7.054e-05,0.0,0 STARLINK-3133,1 49416U 21104J   23357.70546235  .00007054  00000-0  46060-3 0  9999,2 49416  53.2150 251.8110 0001517 136.5835 223.5277 15.08857950117897,6917.826,95.436,540.74,538.641,0.0
49416.0,STARLINK-3133,PAYLOAD,2023-12-23 21:42:01,15.08862008,0.0001369,53.2147,250.9236,110.0197,250.0943,0.00050677,7.791e-05,0.0,0 STARLINK-3133,1 49416U 21104J   23357.90418115  .00007791  00000-0  50677-3 0  9993,2 49416  53.2147 250.9236 0001369 110.0197 250.0943 15.08862008116833,6917.813,95.436,540.625,538.731,0.0
49416.0,STARLINK-3133,PAYLOAD,2023-12-24 00:52:47,15.08863019,0.0001542,53.2153,250.33,92.1242,267.9927,0.00061539,9.526e-05,0.0,0 STARLINK-3133,1 49416U 21104J   23358.03666051  .00009526  00000-0  61539-3 0  9999,2 49416  53.2153 250.3300 0001542  92.1242 267.9927 15.08863019116854,6917.81,95.436,540.742,538.608,0.0
49416.0,STARLINK-3133,PAYLOAD,2023-12-24 16:46:38,15.08852779,0.0001562,53.217,247.3572,109.4339,250.6822,0.00021592,3.151e-05,0.0,0 STARLINK-3133,1 49416U 21104J   23358.69905921  .00003151  00000-0  21592-3 0  9996,2 49416  53.2170 247.3572 0001562 109.4339 250.6822 15.08852779118048,6917.841,95.437,540.787,538.626,0.0
49416.0,STARLINK-3133,PAYLOAD,2023-12-24 21:32:48,15.08849977,0.0001528,53.2155,246.4651,97.8586,262.258,0.00016399,2.324e-05,0.0,0 STARLINK-3133,1 49416U 21104J   23358.89777827  .00002324  00000-0  16399-3 0  9990,2 49416  53.2155 246.4651 0001528  97.8586 262.2580 15.08849977116982,6917.85,95.437,540.772,538.658,0.0
